start=new Date('2023-02-16T00:00:00.000Z').valueOf();
sats=[{"MEAN_MOTION":"15.08883934","REF_FRAME":"TEME","RA_OF_ASC_NODE":"123.1877","ARG_OF_PERICENTER":"84.3549","SEMIMAJOR_AXIS":"6917.746","TLE_LINE1":"1 52694U 22053AQ  23046.65172784  .00028728  00000-0  18136-2 0  9991","SITE":"AFETR","CENTER_NAME":"EARTH","MEAN_MOTION_DOT":"0.00028728","ECCENTRICITY":"0.00013410","GP_ID":"225553659","BSTAR":"0.00181360000000","TIME_SYSTEM":"UTC","NORAD_CAT_ID":"52694","EPHEMERIS_TYPE":"0","MEAN_ANOMALY":"275.7596","REV_AT_EPOCH":"4236","FILE":"3795153","OBJECT_TYPE":"PAYLOAD","ELEMENT_SET_NO":"999","LAUNCH_DATE":"2022-05-18","OBJECT_ID":"2022-053AQ","MEAN_MOTION_DDOT":"0.0000000000000","APOAPSIS":"540.539","RCS_SIZE":"LARGE","PERIAPSIS":"538.683","INCLINATION":"53.2147","MEAN_ELEMENT_THEORY":"SGP4","COUNTRY_CODE":"US","DECAY_DATE":null,"CLASSIFICATION_TYPE":"U","TLE_LINE2":"2 52694  53.2147 123.1877 0001341  84.3549 275.7596 15.08883934 42366","OBJECT_NAME":"STARLINK-4072","EPOCH":"2023-02-15T15:38:29.285376","PERIOD":"95.435"},{"OBJECT_TYPE":"PAYLOAD","FILE":"3795153","REV_AT_EPOCH":"4230","EPHEMERIS_TYPE":"0","NORAD_CAT_ID":"52695","MEAN_ANOMALY":"263.2959","TIME_SYSTEM":"UTC","BSTAR":"0.00276880000000","GP_ID":"225553901","ECCENTRICITY":"0.00009840","MEAN_MOTION_DOT":"0.00044113","CENTER_NAME":"EARTH","SITE":"AFETR","TLE_LINE1":"1 52695U 22053AR  23046.64302525  .00044113  00000-0  27688-2 0  9997","SEMIMAJOR_AXIS":"6917.730","ARG_OF_PERICENTER":"96.8145","RA_OF_ASC_NODE":"128.2343","REF_FRAME":"TEME","MEAN_MOTION":"15.08889190","PERIOD":"95.434","EPOCH":"2023-02-15T15:25:57.381600","OBJECT_NAME":"STARLINK-4041","TLE_LINE2":"2 52695  53.2140 128.2343 0000984  96.8145 263.2959 15.08889190 42305","CLASSIFICATION_TYPE":"U","DECAY_DATE":null,"COUNTRY_CODE":"US","MEAN_ELEMENT_THEORY":"SGP4","INCLINATION":"53.2140","PERIAPSIS":"538.914","APOAPSIS":"540.276","RCS_SIZE":"LARGE","MEAN_MOTION_DDOT":"0.0000000000000","OBJECT_ID":"2022-053AR","LAUNCH_DATE":"2022-05-18","ELEMENT_SET_NO":"999"},{"EPOCH":"2023-02-15T16:57:58.363200","PERIOD":"95.433","TLE_LINE2":"2 52696  53.2147 122.9454 0001163 106.8144 253.2975 15.08906866 42372","CLASSIFICATION_TYPE":"U","OBJECT_NAME":"STARLINK-4025","DECAY_DATE":null,"COUNTRY_CODE":"US","MEAN_ELEMENT_THEORY":"SGP4","INCLINATION":"53.2147","PERIAPSIS":"538.736","APOAPSIS":"540.346","RCS_SIZE":"LARGE","MEAN_MOTION_DDOT":"0.0000000000000","OBJECT_ID":"2022-053AS","LAUNCH_DATE":"2022-05-18","ELEMENT_SET_NO":"999","FILE":"3795153","OBJECT_TYPE":"PAYLOAD","REV_AT_EPOCH":"4237","EPHEMERIS_TYPE":"0","NORAD_CAT_ID":"52696","MEAN_ANOMALY":"253.2975","TIME_SYSTEM":"UTC","BSTAR":"0.00410800000000","ECCENTRICITY":"0.00011630","GP_ID":"225552665","MEAN_MOTION_DOT":"0.00065822","CENTER_NAME":"EARTH","SITE":"AFETR","TLE_LINE1":"1 52696U 22053AS  23046.70692550  .00065822  00000-0  41080-2 0  9997","ARG_OF_PERICENTER":"106.8144","SEMIMAJOR_AXIS":"6917.676","RA_OF_ASC_NODE":"122.9454","REF_FRAME":"TEME","MEAN_MOTION":"15.08906866"},{"PERIOD":"95.434","EPOCH":"2023-02-15T14:01:10.039008","OBJECT_NAME":"STARLINK-4018","TLE_LINE2":"2 52697  53.2148 128.4912 0001139 111.1607 248.9507 15.08889034 42290","CLASSIFICATION_TYPE":"U","COUNTRY_CODE":"US","DECAY_DATE":null,"MEAN_ELEMENT_THEORY":"SGP4","PERIAPSIS":"538.808","INCLINATION":"53.2148","APOAPSIS":"540.383","RCS_SIZE":"LARGE","OBJECT_ID":"2022-053AT","MEAN_MOTION_DDOT":"0.0000000000000","ELEMENT_SET_NO":"999","LAUNCH_DATE":"2022-05-18","REV_AT_EPOCH":"4229","OBJECT_TYPE":"PAYLOAD","FILE":"3795153","BSTAR":"0.00365520000000","EPHEMERIS_TYPE":"0","NORAD_CAT_ID":"52697","MEAN_ANOMALY":"248.9507","TIME_SYSTEM":"UTC","MEAN_MOTION_DOT":"0.00058446","ECCENTRICITY":"0.00011390","GP_ID":"225552912","SITE":"AFETR","CENTER_NAME":"EARTH","SEMIMAJOR_AXIS":"6917.731","ARG_OF_PERICENTER":"111.1607","TLE_LINE1":"1 52697U 22053AT  23046.58414397  .00058446  00000-0  36552-2 0  9997","REF_FRAME":"TEME","RA_OF_ASC_NODE":"128.4912","MEAN_MOTION":"15.08889034"},{"DECAY_DATE":null,"COUNTRY_CODE":"US","MEAN_ELEMENT_THEORY":"SGP4","PERIOD":"95.434","EPOCH":"2023-02-15T15:52:26.959296","OBJECT_NAME":"STARLINK-4030","CLASSIFICATION_TYPE":"U","TLE_LINE2":"2 52698  53.2152 128.1507 0001113 119.9456 240.1647 15.08898911 42296","MEAN_MOTION_DDOT":"0.0000000000000","OBJECT_ID":"2022-053AU","LAUNCH_DATE":"2022-05-18","ELEMENT_SET_NO":"999","INCLINATION":"53.2152","PERIAPSIS":"538.795","RCS_SIZE":"MEDIUM","APOAPSIS":"540.335","ECCENTRICITY":"0.00011130","GP_ID":"225553166","MEAN_MOTION_DOT":"0.00061093","OBJECT_TYPE":"PAYLOAD","FILE":"3795153","REV_AT_EPOCH":"4229","EPHEMERIS_TYPE":"0","NORAD_CAT_ID":"52698","MEAN_ANOMALY":"240.1647","TIME_SYSTEM":"UTC","BSTAR":"0.00381750000000","RA_OF_ASC_NODE":"128.1507","REF_FRAME":"TEME","MEAN_MOTION":"15.08898911","CENTER_NAME":"EARTH","SITE":"AFETR","TLE_LINE1":"1 52698U 22053AU  23046.66142314  .00061093  00000-0  38175-2 0  9999","SEMIMAJOR_AXIS":"6917.700","ARG_OF_PERICENTER":"119.9456"},{"RCS_SIZE":"LARGE","APOAPSIS":"540.270","PERIAPSIS":"538.850","INCLINATION":"53.2165","ELEMENT_SET_NO":"999","LAUNCH_DATE":"2022-05-18","OBJECT_ID":"2022-053AV","MEAN_MOTION_DDOT":"0.0000000000000","CLASSIFICATION_TYPE":"U","TLE_LINE2":"2 52699  53.2165 117.9552 0001027 112.9623 247.1478 15.08900653 42465","OBJECT_NAME":"STARLINK-3987","EPOCH":"2023-02-15T16:52:03.926208","PERIOD":"95.434","MEAN_ELEMENT_THEORY":"SGP4","COUNTRY_CODE":"US","DECAY_DATE":null,"ARG_OF_PERICENTER":"112.9623","SEMIMAJOR_AXIS":"6917.695","TLE_LINE1":"1 52699U 22053AV  23046.70282322  .00066932  00000-0  41770-2 0  9991","SITE":"AFETR","CENTER_NAME":"EARTH","MEAN_MOTION":"15.08900653","REF_FRAME":"TEME","RA_OF_ASC_NODE":"117.9552","BSTAR":"0.00417700000000","EPHEMERIS_TYPE":"0","NORAD_CAT_ID":"52699","MEAN_ANOMALY":"247.1478","TIME_SYSTEM":"UTC","REV_AT_EPOCH":"4246","FILE":"3795153","OBJECT_TYPE":"PAYLOAD","MEAN_MOTION_DOT":"0.00066932","ECCENTRICITY":"0.00010270","GP_ID":"225553408"},{"OBJECT_ID":"2022-053AW","MEAN_MOTION_DDOT":"0.0000000000000","ELEMENT_SET_NO":"999","LAUNCH_DATE":"2022-05-18","PERIAPSIS":"538.561","INCLINATION":"53.2160","RCS_SIZE":"LARGE","APOAPSIS":"540.675","COUNTRY_CODE":"US","DECAY_DATE":null,"MEAN_ELEMENT_THEORY":"SGP4","EPOCH":"2023-02-15T12:31:05.106432","PERIOD":"95.435","CLASSIFICATION_TYPE":"U","TLE_LINE2":"2 52700  53.2160 128.7775 0001528 119.3171 240.7974 15.08881658 41872","OBJECT_NAME":"STARLINK-4034","REF_FRAME":"TEME","RA_OF_ASC_NODE":"128.7775","MEAN_MOTION":"15.08881658","SITE":"AFETR","CENTER_NAME":"EARTH","ARG_OF_PERICENTER":"119.3171","SEMIMAJOR_AXIS":"6917.753","TLE_LINE1":"1 52700U 22053AW  23046.52158688  .00043072  00000-0  27048-2 0  9993","MEAN_MOTION_DOT":"0.00043072","ECCENTRICITY":"0.00015280","GP_ID":"225525049","REV_AT_EPOCH":"4187","FILE":"3794912","OBJECT_TYPE":"PAYLOAD","BSTAR":"0.00270480000000","MEAN_ANOMALY":"240.7974","NORAD_CAT_ID":"52700","EPHEMERIS_TYPE":"0","TIME_SYSTEM":"UTC"},{"OBJECT_ID":"2022-053AX","MEAN_MOTION_DDOT":"0.0000000000000","ELEMENT_SET_NO":"999","LAUNCH_DATE":"2022-05-18","PERIAPSIS":"538.680","INCLINATION":"53.2143","APOAPSIS":"540.534","RCS_SIZE":"LARGE","COUNTRY_CODE":"US","DECAY_DATE":null,"MEAN_ELEMENT_THEORY":"SGP4","EPOCH":"2023-02-15T14:52:07.317696","PERIOD":"95.435","TLE_LINE2":"2 52701  53.2143 113.3414 0001340 120.8545 239.2579 15.08885412 42527","CLASSIFICATION_TYPE":"U","OBJECT_NAME":"STARLINK-4003","REF_FRAME":"TEME","RA_OF_ASC_NODE":"113.3414","MEAN_MOTION":"15.08885412","SITE":"AFETR","CENTER_NAME":"EARTH","ARG_OF_PERICENTER":"120.8545","SEMIMAJOR_AXIS":"6917.742","TLE_LINE1":"1 52701U 22053AX  23046.61952914  .00056958  00000-0  35637-2 0  9998","MEAN_MOTION_DOT":"0.00056958","GP_ID":"225552420","ECCENTRICITY":"0.00013400","REV_AT_EPOCH":"4252","FILE":"3795153","OBJECT_TYPE":"PAYLOAD","BSTAR":"0.00356370000000","NORAD_CAT_ID":"52701","MEAN_ANOMALY":"239.2579","EPHEMERIS_TYPE":"0","TIME_SYSTEM":"UTC"},{"MEAN_ANOMALY":"272.2209","NORAD_CAT_ID":"52702","EPHEMERIS_TYPE":"0","TIME_SYSTEM":"UTC","BSTAR":"0.00359340000000","OBJECT_TYPE":"PAYLOAD","FILE":"3795153","REV_AT_EPOCH":"4230","GP_ID":"225553660","ECCENTRICITY":"0.00009590","MEAN_MOTION_DOT":"0.00057515","TLE_LINE1":"1 52702U 22053AY  23046.64942985  .00057515  00000-0  35934-2 0  9999","SEMIMAJOR_AXIS":"6917.596","ARG_OF_PERICENTER":"87.8893","CENTER_NAME":"EARTH","SITE":"AFETR","MEAN_MOTION":"15.08933185","RA_OF_ASC_NODE":"128.2268","REF_FRAME":"TEME","OBJECT_NAME":"STARLINK-4033","TLE_LINE2":"2 52702  53.2143 128.2268 0000959  87.8893 272.2209 15.08933185 42307","CLASSIFICATION_TYPE":"U","PERIOD":"95.432","EPOCH":"2023-02-15T15:35:10.739040","MEAN_ELEMENT_THEORY":"SGP4","DECAY_DATE":null,"COUNTRY_CODE":"US","RCS_SIZE":"LARGE","APOAPSIS":"540.124","INCLINATION":"53.2143","PERIAPSIS":"538.797","LAUNCH_DATE":"2022-05-18","ELEMENT_SET_NO":"999","MEAN_MOTION_DDOT":"0.0000000000000","OBJECT_ID":"2022-053AY"},{"TLE_LINE1":"1 52703U 22053AZ  23046.67473798  .00010420  00000-0  67145-3 0  9998","SEMIMAJOR_AXIS":"6917.823","ARG_OF_PERICENTER":"100.9122","CENTER_NAME":"EARTH","SITE":"AFETR","MEAN_MOTION":"15.08858824","RA_OF_ASC_NODE":"113.0907","REF_FRAME":"TEME","MEAN_ANOMALY":"259.2036","NORAD_CAT_ID":"52703","EPHEMERIS_TYPE":"0","TIME_SYSTEM":"UTC","BSTAR":"0.00067145000000","OBJECT_TYPE":"PAYLOAD","FILE":"3795153","REV_AT_EPOCH":"4125","GP_ID":"225553902","ECCENTRICITY":"0.00014760","MEAN_MOTION_DOT":"0.00010420","APOAPSIS":"540.709","RCS_SIZE":"LARGE","INCLINATION":"53.2158","PERIAPSIS":"538.667","LAUNCH_DATE":"2022-05-18","ELEMENT_SET_NO":"999","MEAN_MOTION_DDOT":"0.0000000000000","OBJECT_ID":"2022-053AZ","OBJECT_NAME":"STARLINK-4020","CLASSIFICATION_TYPE":"U","TLE_LINE2":"2 52703  53.2158 113.0907 0001476 100.9122 259.2036 15.08858824 41255","PERIOD":"95.436","EPOCH":"2023-02-15T16:11:37.361472","MEAN_ELEMENT_THEORY":"SGP4","DECAY_DATE":null,"COUNTRY_CODE":"US"}];
